CCSDS_OMM_VERS = 2.0
CREATION_DATE  = 
ORIGINATOR     = 

OBJECT_NAME    = UNKNOWN
OBJECT_ID      = 
CENTER_NAME    = EARTH
REF_FRAME      = TEME
TIME_SYSTEM    = UTC
MEAN_ELEMENT_THEORY = SGP/SGP4

EPOCH          = 2026-03-20T11:57:23.304096
MEAN_MOTION    = 14.11015227
ECCENTRICITY   = .0084075
INCLINATION    = 89.9946
RA_OF_ASC_NODE = 267.8769
ARG_OF_PERICENTER = 270.3110
MEAN_ANOMALY   = 88.8441

EPHEMERIS_TYPE = 0
CLASSIFICATION_TYPE = U
NORAD_CAT_ID   = 87335
ELEMENT_SET_NO = 999
REV_AT_EPOCH   = 40074
BSTAR          = .91824E-2
MEAN_MOTION_DOT = .1709E-3
MEAN_MOTION_DDOT = 0

CCSDS_OMM_VERS = 2.0
CREATION_DATE  = 
ORIGINATOR     = 

OBJECT_NAME    = UNKNOWN
OBJECT_ID      = 
CENTER_NAME    = EARTH
REF_FRAME      = TEME
TIME_SYSTEM    = UTC
MEAN_ELEMENT_THEORY = SGP/SGP4

EPOCH          = 2026-03-20T17:19:49.570464
MEAN_MOTION    = 13.96852285
ECCENTRICITY   = .0061356
INCLINATION    = 82.7529
RA_OF_ASC_NODE = 342.7961
ARG_OF_PERICENTER = 48.0338
MEAN_ANOMALY   = 312.6033

EPHEMERIS_TYPE = 0
CLASSIFICATION_TYPE = U
NORAD_CAT_ID   = 87405
ELEMENT_SET_NO = 999
REV_AT_EPOCH   = 62483
BSTAR          = .16872E-2
MEAN_MOTION_DOT = .2398E-4
MEAN_MOTION_DDOT = 0

CCSDS_OMM_VERS = 2.0
CREATION_DATE  = 
ORIGINATOR     = 

OBJECT_NAME    = UNKNOWN
OBJECT_ID      = 
CENTER_NAME    = EARTH
REF_FRAME      = TEME
TIME_SYSTEM    = UTC
MEAN_ELEMENT_THEORY = SGP/SGP4

EPOCH          = 2026-03-20T14:36:59.080032
MEAN_MOTION    = 14.30750743
ECCENTRICITY   = .0069749
INCLINATION    = 65.7826
RA_OF_ASC_NODE = 68.9548
ARG_OF_PERICENTER = 250.9999
MEAN_ANOMALY   = 217.6866

EPHEMERIS_TYPE = 0
CLASSIFICATION_TYPE = U
NORAD_CAT_ID   = 87426
ELEMENT_SET_NO = 999
REV_AT_EPOCH   = 63658
BSTAR          = .14815E-2
MEAN_MOTION_DOT = .3899E-4
MEAN_MOTION_DDOT = 0

CCSDS_OMM_VERS = 2.0
CREATION_DATE  = 
ORIGINATOR     = 

OBJECT_NAME    = UNKNOWN
OBJECT_ID      = 
CENTER_NAME    = EARTH
REF_FRAME      = TEME
TIME_SYSTEM    = UTC
MEAN_ELEMENT_THEORY = SGP/SGP4

EPOCH          = 2026-03-21T13:44:26.360448
MEAN_MOTION    = 13.90919087
ECCENTRICITY   = .0063356
INCLINATION    = 100.4499
RA_OF_ASC_NODE = 304.3104
ARG_OF_PERICENTER = 308.8686
MEAN_ANOMALY   = 50.6827

EPHEMERIS_TYPE = 0
CLASSIFICATION_TYPE = U
NORAD_CAT_ID   = 87448
ELEMENT_SET_NO = 999
REV_AT_EPOCH   = 62297
BSTAR          = .10234E-2
MEAN_MOTION_DOT = .1248E-4
MEAN_MOTION_DDOT = 0

CCSDS_OMM_VERS = 2.0
CREATION_DATE  = 
ORIGINATOR     = 

OBJECT_NAME    = UNKNOWN
OBJECT_ID      = 
CENTER_NAME    = EARTH
REF_FRAME      = TEME
TIME_SYSTEM    = UTC
MEAN_ELEMENT_THEORY = SGP/SGP4

EPOCH          = 2026-03-16T14:53:37.171968
MEAN_MOTION    = 14.15265662
ECCENTRICITY   = .0510769
INCLINATION    = 65.7652
RA_OF_ASC_NODE = 201.3609
ARG_OF_PERICENTER = 316.9482
MEAN_ANOMALY   = 39.2680

EPHEMERIS_TYPE = 0
CLASSIFICATION_TYPE = U
NORAD_CAT_ID   = 87456
ELEMENT_SET_NO = 999
REV_AT_EPOCH   = 62477
BSTAR          = .4882E-3
MEAN_MOTION_DOT = .3349E-4
MEAN_MOTION_DDOT = 0

CCSDS_OMM_VERS = 2.0
CREATION_DATE  = 
ORIGINATOR     = 

OBJECT_NAME    = UNKNOWN
OBJECT_ID      = 
CENTER_NAME    = EARTH
REF_FRAME      = TEME
TIME_SYSTEM    = UTC
MEAN_ELEMENT_THEORY = SGP/SGP4

EPOCH          = 2026-03-19T05:59:45.158208
MEAN_MOTION    = 13.62157412
ECCENTRICITY   = .0673245
INCLINATION    = 65.8264
RA_OF_ASC_NODE = 357.4816
ARG_OF_PERICENTER = 260.5406
MEAN_ANOMALY   = 178.0199

EPHEMERIS_TYPE = 0
CLASSIFICATION_TYPE = U
NORAD_CAT_ID   = 87517
ELEMENT_SET_NO = 999
REV_AT_EPOCH   = 60605
BSTAR          = .37407E-3
MEAN_MOTION_DOT = .1284E-4
MEAN_MOTION_DDOT = 0

CCSDS_OMM_VERS = 2.0
CREATION_DATE  = 
ORIGINATOR     = 

OBJECT_NAME    = UNKNOWN
OBJECT_ID      = 
CENTER_NAME    = EARTH
REF_FRAME      = TEME
TIME_SYSTEM    = UTC
MEAN_ELEMENT_THEORY = SGP/SGP4

EPOCH          = 2026-03-01T19:58:05.282112
MEAN_MOTION    = 13.35612304
ECCENTRICITY   = .0060247
INCLINATION    = 99.6988
RA_OF_ASC_NODE = 275.7697
ARG_OF_PERICENTER = 71.0193
MEAN_ANOMALY   = 353.3780

EPHEMERIS_TYPE = 0
CLASSIFICATION_TYPE = U
NORAD_CAT_ID   = 87541
ELEMENT_SET_NO = 999
REV_AT_EPOCH   = 59259
BSTAR          = .33234E-3
MEAN_MOTION_DOT = .129E-5
MEAN_MOTION_DDOT = 0

CCSDS_OMM_VERS = 2.0
CREATION_DATE  = 
ORIGINATOR     = 

OBJECT_NAME    = UNKNOWN
OBJECT_ID      = 
CENTER_NAME    = EARTH
REF_FRAME      = TEME
TIME_SYSTEM    = UTC
MEAN_ELEMENT_THEORY = SGP/SGP4

EPOCH          = 2026-03-20T13:25:44.738976
MEAN_MOTION    = 13.54205162
ECCENTRICITY   = .0690087
INCLINATION    = 65.6670
RA_OF_ASC_NODE = 119.0262
ARG_OF_PERICENTER = 184.1092
MEAN_ANOMALY   = 175.4112

EPHEMERIS_TYPE = 0
CLASSIFICATION_TYPE = U
NORAD_CAT_ID   = 87553
ELEMENT_SET_NO = 999
REV_AT_EPOCH   = 60449
BSTAR          = .5127E-3
MEAN_MOTION_DOT = .1575E-4
MEAN_MOTION_DDOT = 0

CCSDS_OMM_VERS = 2.0
CREATION_DATE  = 
ORIGINATOR     = 

OBJECT_NAME    = UNKNOWN
OBJECT_ID      = 
CENTER_NAME    = EARTH
REF_FRAME      = TEME
TIME_SYSTEM    = UTC
MEAN_ELEMENT_THEORY = SGP/SGP4

EPOCH          = 2026-03-21T13:53:53.362176
MEAN_MOTION    = 13.28664097
ECCENTRICITY   = .0053064
INCLINATION    = 101.7782
RA_OF_ASC_NODE = 314.1790
ARG_OF_PERICENTER = 158.9440
MEAN_ANOMALY   = 201.3875

EPHEMERIS_TYPE = 0
CLASSIFICATION_TYPE = U
NORAD_CAT_ID   = 87557
ELEMENT_SET_NO = 999
REV_AT_EPOCH   = 57815
BSTAR          = .10133E-1
MEAN_MOTION_DOT = .4624E-4
MEAN_MOTION_DDOT = 0

CCSDS_OMM_VERS = 2.0
CREATION_DATE  = 
ORIGINATOR     = 

OBJECT_NAME    = UNKNOWN
OBJECT_ID      = 
CENTER_NAME    = EARTH
REF_FRAME      = TEME
TIME_SYSTEM    = UTC
MEAN_ELEMENT_THEORY = SGP/SGP4

EPOCH          = 2026-03-20T09:18:31.440096
MEAN_MOTION    = 12.32165370
ECCENTRICITY   = .0175505
INCLINATION    = 101.9924
RA_OF_ASC_NODE = 139.1691
ARG_OF_PERICENTER = 114.6837
MEAN_ANOMALY   = 310.7946

EPHEMERIS_TYPE = 0
CLASSIFICATION_TYPE = U
NORAD_CAT_ID   = 87561
ELEMENT_SET_NO = 999
REV_AT_EPOCH   = 55446
BSTAR          = -.14213E-3
MEAN_MOTION_DOT = -.61E-6
MEAN_MOTION_DDOT = 0

CCSDS_OMM_VERS = 2.0
CREATION_DATE  = 
ORIGINATOR     = 

OBJECT_NAME    = UNKNOWN
OBJECT_ID      = 
CENTER_NAME    = EARTH
REF_FRAME      = TEME
TIME_SYSTEM    = UTC
MEAN_ELEMENT_THEORY = SGP/SGP4

EPOCH          = 2026-03-17T05:31:43.075488
MEAN_MOTION    = 14.06293023
ECCENTRICITY   = .0170692
INCLINATION    = 99.9526
RA_OF_ASC_NODE = 82.1290
ARG_OF_PERICENTER = 275.0996
MEAN_ANOMALY   = 83.0707

EPHEMERIS_TYPE = 0
CLASSIFICATION_TYPE = U
NORAD_CAT_ID   = 87565
ELEMENT_SET_NO = 999
REV_AT_EPOCH   = 62971
BSTAR          = .68034E-3
MEAN_MOTION_DOT = .1225E-4
MEAN_MOTION_DDOT = 0

CCSDS_OMM_VERS = 2.0
CREATION_DATE  = 
ORIGINATOR     = 

OBJECT_NAME    = UNKNOWN
OBJECT_ID      = 
CENTER_NAME    = EARTH
REF_FRAME      = TEME
TIME_SYSTEM    = UTC
MEAN_ELEMENT_THEORY = SGP/SGP4

EPOCH          = 2026-03-17T07:08:42.964800
MEAN_MOTION    = 12.68544795
ECCENTRICITY   = .0055745
INCLINATION    = 101.9958
RA_OF_ASC_NODE = 262.3064
ARG_OF_PERICENTER = 68.0886
MEAN_ANOMALY   = 112.8117

EPHEMERIS_TYPE = 0
CLASSIFICATION_TYPE = U
NORAD_CAT_ID   = 87569
ELEMENT_SET_NO = 999
REV_AT_EPOCH   = 57045
BSTAR          = .16514E-3
MEAN_MOTION_DOT = -.16E-6
MEAN_MOTION_DDOT = 0

