UNKNOWN                 
1 87335U          26079.49818639  .00017090  00000+0  91824-2 0  9990
2 87335  89.9946 267.8769 0084075 270.3110  88.8441 14.11015227400748
UNKNOWN                 
1 87405U          26079.72210151  .00002398  00000+0  16872-2 0  9994
2 87405  82.7529 342.7961 0061356  48.0338 312.6033 13.96852285624838
UNKNOWN                 
1 87426U          26079.60901713  .00003899  00000+0  14815-2 0  9997
2 87426  65.7826  68.9548 0069749 250.9999 217.6866 14.30750743636589
UNKNOWN                 
1 87448U          26080.57252732  .00001248  00000+0  10234-2 0  9996
2 87448 100.4499 304.3104 0063356 308.8686  50.6827 13.90919087622978
UNKNOWN                 
1 87456U          26075.62056912  .00003349  00000+0  48820-3 0  9994
2 87456  65.7652 201.3609 0510769 316.9482  39.2680 14.15265662624777
UNKNOWN                 
1 87517U          26078.24982822  .00001284  00000+0  37407-3 0  9996
2 87517  65.8264 357.4816 0673245 260.5406 178.0199 13.62157412606059
UNKNOWN                 
1 87541U          26060.83200558  .00000129  00000+0  33234-3 0  9999
2 87541  99.6988 275.7697 0060247  71.0193 353.3780 13.35612304592596
UNKNOWN                 
1 87553U          26079.55954559  .00001575  00000+0  51270-3 0  9994
2 87553  65.6670 119.0262 0690087 184.1092 175.4112 13.54205162604499
UNKNOWN                 
1 87557U          26080.57908984  .00004624  00000+0  10133-1 0  9992
2 87557 101.7782 314.1790 0053064 158.9440 201.3875 13.28664097578152
UNKNOWN                 
1 87561U          26079.38786389 -.00000061  00000+0 -14213-3 0  9995
2 87561 101.9924 139.1691 0175505 114.6837 310.7946 12.32165370554462
UNKNOWN                 
1 87565U          26076.23035967  .00001225  00000+0  68034-3 0  9990
2 87565  99.9526  82.1290 0170692 275.0996  83.0707 14.06293023629718
UNKNOWN                 
1 87569U          26076.29771950 -.00000016  00000+0  16514-3 0  9993
2 87569 101.9958 262.3064 0055745  68.0886 112.8117 12.68544795570458
